[{"OBJECT_NAME":"GNOMES-5","OBJECT_ID":"2024-149DL","EPOCH":"2026-03-09T22:53:01.372704","MEAN_MOTION":15.00280005,"ECCENTRICITY":0.00076217,"INCLINATION":97.6857,"RA_OF_ASC_NODE":148.0235,"ARG_OF_PERICENTER":89.6268,"MEAN_ANOMALY":270.5829,"EPHEMERIS_TYPE":0,"CLASSIFICATION_TYPE":"U","NORAD_CAT_ID":60574,"ELEMENT_SET_NO":999,"REV_AT_EPOCH":8527,"BSTAR":0.00047414566,"MEAN_MOTION_DOT":5.885e-5,"MEAN_MOTION_DDOT":0},{"OBJECT_NAME":"STARLINK-35043","OBJECT_ID":"2025-194C","EPOCH":"2026-03-09T13:09:26.133696","MEAN_MOTION":15.01266309,"ECCENTRICITY":0.00022628,"INCLINATION":97.6045,"RA_OF_ASC_NODE":285.0493,"ARG_OF_PERICENTER":74.6485,"MEAN_ANOMALY":285.4989,"EPHEMERIS_TYPE":0,"CLASSIFICATION_TYPE":"U","NORAD_CAT_ID":65436,"ELEMENT_SET_NO":999,"REV_AT_EPOCH":2967,"BSTAR":0.00026824056,"MEAN_MOTION_DOT":3.389e-5,"MEAN_MOTION_DDOT":0}]
